{
    "links": {
        "self": "http://www.neowsapp.com/rest/v1/neo/3771637?api_key=iIulBulltgU6a56xZRHN4H3l9WmuAYTsLGpBGhQ2"
    },
    "id": "3771637",
    "neo_reference_id": "3771637",
    "name": "(2017 FV2)",
    "designation": "2017 FV2",
    "nasa_jpl_url": "http://ssd.jpl.nasa.gov/sbdb.cgi?sstr=3771637",
    "absolute_magnitude_h": 23.2,
    "estimated_diameter": {
        "kilometers": {
            "estimated_diameter_min": 0.0608912622,
            "estimated_diameter_max": 0.1361570015
        },
        "meters": {
            "estimated_diameter_min": 60.8912622106,
            "estimated_diameter_max": 136.1570015386
        },
        "miles": {
            "estimated_diameter_min": 0.0378360645,
            "estimated_diameter_max": 0.0846040122
        },
        "feet": {
            "estimated_diameter_min": 199.7744887109,
            "estimated_diameter_max": 446.7093369279
        }
    },
    "is_potentially_hazardous_asteroid": false,
    "close_approach_data": [
        {
            "close_approach_date": "2017-03-07",
            "close_approach_date_full": "2017-Mar-07 22:32",
            "epoch_date_close_approach": 1488925920000,
            "relative_velocity": {
                "kilometers_per_second": "22.4695399888",
                "kilometers_per_hour": "80890.3439598474",
                "miles_per_hour": "50262.1140010507"
            },
            "miss_distance": {
                "astronomical": "0.0408463162",
                "lunar": "15.8892170018",
                "kilometers": "6110521.900866494",
                "miles": "3796902.2445018572"
            },
            "orbiting_body": "Earth"
        }
    ],
    "orbital_data": {
        "orbit_id": "5",
        "orbit_determination_date": "2017-04-10 12:00:20",
        "first_observation_date": "2017-03-18",
        "last_observation_date": "2017-03-27",
        "data_arc_in_days": 9,
        "observations_used": 26,
        "orbit_uncertainty": "9",
        "minimum_orbit_intersection": ".0246182",
        "jupiter_tisserand_invariant": "3.347",
        "epoch_osculation": "2457833.5",
        "eccentricity": ".7477604169952833",
        "semi_major_axis": "2.060156900084149",
        "inclination": "10.55264645939934",
        "ascending_node_longitude": "356.4788912652136",
        "orbital_period": "1080.062462966948",
        "perihelion_distance": ".5196531174015157",
        "perihelion_argument": "75.50032670564727",
        "aphelion_distance": "3.600660682766782",
        "perihelion_time": "2457774.126000236648",
        "mean_anomaly": "19.79018866750564",
        "mean_motion": ".3333140557547706",
        "equinox": "J2000",
        "orbit_class": {
            "orbit_class_type": "APO",
            "orbit_class_description": "Near-Earth asteroid orbits which cross the Earth’s orbit similar to that of 1862 Apollo",
            "orbit_class_range": "a (semi-major axis) > 1.0 AU; q (perihelion) < 1.017 AU"
        }
    },
    "is_sentry_object": false
}